OBJECT_NAME,OBJECT_ID,EPOCH,MEAN_MOTION,ECCENTRICITY,INCLINATION,RA_OF_ASC_NODE,ARG_OF_PERICENTER,MEAN_ANOMALY,EPHEMERIS_TYPE,CLASSIFICATION_TYPE,NORAD_CAT_ID,ELEMENT_SET_NO,REV_AT_EPOCH,BSTAR,MEAN_MOTION_DOT,MEAN_MOTION_DDOT
STARLINK-3225,2021-115P,2026-06-09T13:06:51.587424,15.08817980,.00014881,53.1659,96.7101,79.0116,281.1043,0,U,49737,999,24940,.28690354E-3,.4278E-4,0
STARLINK-3143,2021-115Q,2026-06-09T01:46:48.425376,15.10752017,.00023568,53.2115,98.7114,76.8612,283.2644,0,U,49738,999,24933,.12455198E-2,.20661E-3,0
STARLINK-3155,2021-115R,2026-06-09T03:17:19.002336,15.08830068,.0001554,53.1648,108.5506,92.0645,268.0525,0,U,49739,999,24919,-.7766354E-5,-.412E-5,0
STARLINK-3226,2021-115S,2026-06-09T02:21:43.346304,15.08836386,.00012879,53.1674,98.6946,94.0812,266.0327,0,U,49740,999,24933,.19514279E-4,.23E-6,0
STARLINK-3244,2021-115T,2026-06-09T02:16:25.530816,15.08836362,.00012247,53.1671,98.7498,87.9109,272.2023,0,U,49741,999,24933,.60462351E-4,.674E-5,0
STARLINK-3202,2021-115U,2026-06-09T02:36:14.595264,15.08815645,.00011096,53.1645,98.6830,105.2569,254.8546,0,U,49742,999,24933,.21236395E-3,.3091E-4,0
STARLINK-3239,2021-115V,2026-06-09T13:18:48.809376,15.08834942,.00014151,53.1668,96.6046,90.0879,270.0275,0,U,49743,999,24940,.53662663E-4,.566E-5,0
STARLINK-3231,2021-115W,2026-06-09T02:32:18.203136,15.08835311,.00012297,53.1646,98.5855,87.3368,272.7764,0,U,49744,999,24933,.12984366E-4,-.81E-6,0
STARLINK-3241,2021-115X,2026-06-09T02:27:01.043424,15.08830947,.00014709,53.1658,98.6781,88.1262,271.9898,0,U,49745,999,24933,.63167821E-4,.717E-5,0
STARLINK-3233,2021-115Y,2026-06-09T12:29:45.325536,15.08833940,.00013021,53.1643,96.8289,93.8284,266.2856,0,U,49746,999,24939,.59362943E-4,.657E-5,0
STARLINK-3247,2021-115Z,2026-06-09T02:41:32.554176,15.08837261,.00013242,53.1645,98.6656,69.8824,290.2310,0,U,49747,999,24933,.16552409E-4,-.25E-6,0
STARLINK-3248,2021-115AA,2026-06-09T13:17:22.484544,15.08836235,.00012951,53.1655,96.2524,90.5531,269.5609,0,U,49748,999,24941,.9784063E-5,-.132E-5,0
STARLINK-3250,2021-115AB,2026-06-09T12:57:41.704992,15.08793355,.00014814,53.1644,96.9818,100.5715,259.5443,0,U,49749,999,24939,.59856529E-3,.9239E-4,0
STARLINK-3236,2021-115AC,2026-06-09T12:52:21.167040,15.08793496,.00012039,53.1630,96.7657,98.0325,262.0803,0,U,49750,999,24940,.61219611E-3,.9457E-4,0
STARLINK-3229,2021-115AD,2026-06-09T12:24:27.873792,15.08795215,.00015366,53.1651,96.7663,77.1347,282.9816,0,U,49751,999,24940,.5616939E-3,.8652E-4,0
STARLINK-3209,2021-115AE,2026-06-09T11:39:28.036224,15.08837384,.00016202,53.1648,86.9932,84.3773,275.7403,0,U,49752,999,24953,.7881431E-5,-.163E-5,0
STARLINK-3200,2021-115AF,2026-06-09T12:45:40.895712,15.08831930,.00013791,53.1650,96.7789,84.0565,276.0583,0,U,49753,999,24940,-.77816395E-4,-.1526E-4,0
STARLINK-3193,2021-115AG,2026-06-09T11:43:24.875040,15.08826933,.00013175,53.1645,87.0761,85.2506,274.8636,0,U,49754,999,24953,.7072219E-5,-.175E-5,0
STARLINK-3210,2021-115AH,2026-06-09T13:02:57.495264,15.08820443,.00015019,53.1660,96.7710,68.1081,292.0070,0,U,49755,999,24940,.44690979E-3,.6828E-4,0
STARLINK-3207,2021-115AJ,2026-06-09T11:53:59.348256,15.08832294,.00013818,53.1642,86.9394,87.5561,272.5589,0,U,49756,999,24953,.28467031E-4,.165E-5,0
STARLINK-3197,2021-115AK,2026-06-09T11:44:46.128192,15.08833157,.00014469,53.1630,86.9789,86.9147,273.2010,0,U,49757,999,24953,.55305098E-4,.592E-5,0
STARLINK-3194,2021-115AL,2026-06-09T12:04:35.464800,15.08832345,.00012322,53.1639,86.9049,92.6280,267.4852,0,U,49758,999,24953,.57692711E-4,.63E-5,0
STARLINK-3204,2021-115AM,2026-06-09T11:48:41.736672,15.08828134,.00015395,53.1646,86.9526,90.5390,269.5778,0,U,49759,999,24953,-.8040633E-5,-.416E-5,0
STARLINK-3199,2021-115AN,2026-06-09T12:15:11.567520,15.08829750,.00013237,53.1640,86.8715,89.8234,270.2909,0,U,49760,999,24954,.24121161E-4,.96E-6,0
STARLINK-3203,2021-115AP,2026-06-09T11:59:17.489472,15.08838630,.00014747,53.1636,86.9206,84.4972,275.6187,0,U,49761,999,24953,-.24587583E-4,-.679E-5,0
STARLINK-3195,2021-115AQ,2026-06-09T12:25:46.805376,15.08838304,.00013528,53.1650,86.8385,88.0288,272.0858,0,U,49762,999,24954,.53206504E-4,.559E-5,0
STARLINK-3198,2021-115AR,2026-06-09T12:09:53.434080,15.08830839,.00011156,53.1633,86.8883,91.6437,268.4682,0,U,49763,999,24954,.3973885E-5,-.225E-5,0
STARLINK-3227,2021-115AT,2026-06-09T12:21:52.320096,15.08830105,.00015928,53.1643,86.8615,86.1992,273.9182,0,U,49765,999,24954,.22992415E-3,.3372E-4,0
STARLINK-3190,2021-115AU,2026-06-09T12:43:02.977248,15.08845384,.00013471,53.1655,86.7933,113.7799,246.3334,0,U,49766,999,24954,-.18495489E-3,-.3231E-4,0
STARLINK-3192,2021-115AV,2026-06-09T12:31:05.665440,15.08829864,.00014179,53.1649,86.8209,87.1137,273.0017,0,U,49767,999,24954,.41468345E-4,.372E-5,0
