STARLINK-3225           
1 49737U 21115P   26160.54643041  .00004278  00000+0  28690-3 0  9990
2 49737  53.1659  96.7101 0001488  79.0116 281.1043 15.08817980249405
STARLINK-3143           
1 49738U 21115Q   26160.07417159  .00020661  00000+0  12455-2 0  9993
2 49738  53.2115  98.7114 0002356  76.8612 283.2644 15.10752017249335
STARLINK-3155           
1 49739U 21115R   26160.13702549 -.00000412  00000+0 -77664-5 0  9991
2 49739  53.1648 108.5506 0001554  92.0645 268.0525 15.08830068249199
STARLINK-3226           
1 49740U 21115S   26160.09841836  .00000023  00000+0  19514-4 0  9996
2 49740  53.1674  98.6946 0001287  94.0812 266.0327 15.08836386249331
STARLINK-3244           
1 49741U 21115T   26160.09473994  .00000674  00000+0  60462-4 0  9993
2 49741  53.1671  98.7498 0001224  87.9109 272.2023 15.08836362249339
STARLINK-3202           
1 49742U 21115U   26160.10850226  .00003091  00000+0  21236-3 0  9994
2 49742  53.1645  98.6830 0001109 105.2569 254.8546 15.08815645249333
STARLINK-3239           
1 49743U 21115V   26160.55473159  .00000566  00000+0  53663-4 0  9994
2 49743  53.1668  96.6046 0001415  90.0879 270.0275 15.08834942249409
STARLINK-3231           
1 49744U 21115W   26160.10576624 -.00000081  00000+0  12984-4 0  9991
2 49744  53.1646  98.5855 0001229  87.3368 272.7764 15.08835311249335
STARLINK-3241           
1 49745U 21115X   26160.10209541  .00000717  00000+0  63168-4 0  9998
2 49745  53.1658  98.6781 0001470  88.1262 271.9898 15.08830947249337
STARLINK-3233           
1 49746U 21115Y   26160.52066349  .00000657  00000+0  59363-4 0  9997
2 49746  53.1643  96.8289 0001302  93.8284 266.2856 15.08833940249399
STARLINK-3247           
1 49747U 21115Z   26160.11218234 -.00000025  00000+0  16552-4 0  9998
2 49747  53.1645  98.6656 0001324  69.8824 290.2310 15.08837261249333
STARLINK-3248           
1 49748U 21115AA  26160.55373246 -.00000132  00000+0  97841-5 0  9992
2 49748  53.1655  96.2524 0001295  90.5531 269.5609 15.08836235249415
STARLINK-3250           
1 49749U 21115AB  26160.54006603  .00009239  00000+0  59857-3 0  9991
2 49749  53.1644  96.9818 0001481 100.5715 259.5443 15.08793355249397
STARLINK-3236           
1 49750U 21115AC  26160.53635610  .00009457  00000+0  61220-3 0  9997
2 49750  53.1630  96.7657 0001203  98.0325 262.0803 15.08793496249400
STARLINK-3229           
1 49751U 21115AD  26160.51698928  .00008652  00000+0  56169-3 0  9999
2 49751  53.1651  96.7663 0001536  77.1347 282.9816 15.08795215249408
STARLINK-3209           
1 49752U 21115AE  26160.48574116 -.00000163  00000+0  78814-5 0  9991
2 49752  53.1648  86.9932 0001620  84.3773 275.7403 15.08837384249532
STARLINK-3200           
1 49753U 21115AF  26160.53172333 -.00001526  00000+0 -77816-4 0  9998
2 49753  53.1650  96.7789 0001379  84.0565 276.0583 15.08831930249402
STARLINK-3193           
1 49754U 21115AG  26160.48848235 -.00000175  00000+0  70722-5 0  9992
2 49754  53.1645  87.0761 0001317  85.2506 274.8636 15.08826933249536
STARLINK-3210           
1 49755U 21115AH  26160.54372101  .00006828  00000+0  44691-3 0  9998
2 49755  53.1660  96.7710 0001501  68.1081 292.0070 15.08820443249408
STARLINK-3207           
1 49756U 21115AJ  26160.49582579  .00000165  00000+0  28467-4 0  9997
2 49756  53.1642  86.9394 0001381  87.5561 272.5589 15.08832294249531
STARLINK-3197           
1 49757U 21115AK  26160.48942278  .00000592  00000+0  55305-4 0  9998
2 49757  53.1630  86.9789 0001446  86.9147 273.2010 15.08833157249538
STARLINK-3194           
1 49758U 21115AL  26160.50318825  .00000630  00000+0  57693-4 0  9992
2 49758  53.1639  86.9049 0001232  92.6280 267.4852 15.08832345249539
STARLINK-3204           
1 49759U 21115AM  26160.49214973 -.00000416  00000+0 -80406-5 0  9993
2 49759  53.1646  86.9526 0001539  90.5390 269.5778 15.08828134249538
STARLINK-3199           
1 49760U 21115AN  26160.51055055  .00000096  00000+0  24121-4 0  9995
2 49760  53.1640  86.8715 0001323  89.8234 270.2909 15.08829750249543
STARLINK-3203           
1 49761U 21115AP  26160.49950798 -.00000679  00000+0 -24588-4 0  9997
2 49761  53.1636  86.9206 0001474  84.4972 275.6187 15.08838630249535
STARLINK-3195           
1 49762U 21115AQ  26160.51790284  .00000559  00000+0  53207-4 0  9998
2 49762  53.1650  86.8385 0001352  88.0288 272.0858 15.08838304249549
STARLINK-3198           
1 49763U 21115AR  26160.50686845 -.00000225  00000+0  39739-5 0  9991
2 49763  53.1633  86.8883 0001115  91.6437 268.4682 15.08830839249546
STARLINK-3227           
1 49765U 21115AT  26160.51518889  .00003372  00000+0  22992-3 0  9992
2 49765  53.1643  86.8615 0001592  86.1992 273.9182 15.08830105249548
STARLINK-3190           
1 49766U 21115AU  26160.52989557 -.00003231  00000+0 -18495-3 0  9997
2 49766  53.1655  86.7933 0001347 113.7799 246.3334 15.08845384249542
STARLINK-3192           
1 49767U 21115AV  26160.52159335  .00000372  00000+0  41468-4 0  9999
2 49767  53.1649  86.8209 0001417  87.1137 273.0017 15.08829864249541
